<?xml version='1.0' encoding='utf-8'?>
<kml xmlns="http://www.opengis.net/kml/2.2"><Document><Placemark><Point><coordinates>151.211261,-33.863845,0</coordinates></Point></Placemark><Placemark><Point><coordinates>151.211236,-33.863866,0</coordinates></Point></Placemark><Placemark><Point><coordinates>151.211225,-33.863883,0</coordinates></Point></Placemark><Placemark><Point><coordinates>151.21122,-33.863892,0</coordinates></Point></Placemark><Placemark><Point><coordinates>151.211095,-33.863817,0</coordinates></Point></Placemark><Placemark><Point><coordinates>151.211079,-33.863809,0</coordinates></Point></Placemark><Placemark><Point><coordinates>151.21107,-33.863803,0</coordinates></Point></Placemark><Placemark><Point><coordinates>151.211059,-33.863812,0</coordinates></Point></Placemark><Placemark><Point><coordinates>151.211054,-33.863826,0</coordinates></Point></Placemark><Placemark><Point><coordinates>151.211052,-33.863837,0</coordinates></Point></Placemark><Placemark><Point><coordinates>151.21105,-33.863853,0</coordinates></Point></Placemark><Placemark><Point><coordinates>151.211049,-33.863863,0</coordinates></Point></Placemark><Placemark><Point><coordinates>151.211048,-33.863873,0</coordinates></Point></Placemark><Placemark><Point><coordinates>151.211045,-33.863888,0</coordinates></Point></Placemark><Placemark><Point><coordinates>151.211043,-33.8639,0</coordinates></Point></Placemark><Placemark><Point><coordinates>151.211043,-33.863915,0</coordinates></Point></Placemark><Placemark><Point><coordinates>151.211043,-33.863928,0</coordinates></Point></Placemark><Placemark><Point><coordinates>151.211042,-33.863938,0</coordinates></Point></Placemark><Placemark><Point><coordinates>151.211041,-33.863949,0</coordinates></Point></Placemark><Placemark><Point><coordinates>151.211038,-33.863964,0</coordinates></Point></Placemark><Placemark><Point><coordinates>151.211032,-33.863979,0</coordinates></Point></Placemark><Placemark><Point><coordinates>151.211022,-33.863992,0</coordinates></Point></Placemark><Placemark><Point><coordinates>151.211012,-33.864004,0</coordinates></Point></Placemark><Placemark><Point><coordinates>151.211003,-33.864011,0</coordinates></Point></Placemark><Placemark><Point><coordinates>151.210991,-33.864019,0</coordinates></Point></Placemark><Placemark><Point><coordinates>151.210976,-33.864025,0</coordinates></Point></Placemark><Placemark><Point><coordinates>151.210966,-33.86403,0</coordinates></Point></Placemark><Placemark><Point><coordinates>151.21095,-33.864034,0</coordinates></Point></Placemark><Placemark><Point><coordinates>151.210935,-33.864041,0</coordinates></Point></Placemark><Placemark><Point><coordinates>151.210926,-33.864049,0</coordinates></Point></Placemark><Placemark><Point><coordinates>151.210915,-33.864056,0</coordinates></Point></Placemark><Placemark><Point><coordinates>151.210905,-33.86406,0</coordinates></Point></Placemark><Placemark><Point><coordinates>151.210896,-33.864069,0</coordinates></Point></Placemark><Placemark><Point><coordinates>151.210887,-33.864074,0</coordinates></Point></Placemark><Placemark><Point><coordinates>151.210871,-33.86408,0</coordinates></Point></Placemark><Placemark><Point><coordinates>151.210854,-33.864099,0</coordinates></Point></Placemark><Placemark><Point><coordinates>151.210851,-33.86411,0</coordinates></Point></Placemark><Placemark><Point><coordinates>151.210856,-33.864119,0</coordinates></Point></Placemark><Placemark><Point><coordinates>151.210857,-33.864128,0</coordinates></Point></Placemark><Placemark><Point><coordinates>151.210844,-33.864139,0</coordinates></Point></Placemark><Placemark><Point><coordinates>151.210831,-33.864145,0</coordinates></Point></Placemark><Placemark><Point><coordinates>151.210818,-33.86415,0</coordinates></Point></Placemark><Placemark><Point><coordinates>151.210804,-33.864154,0</coordinates></Point></Placemark><Placemark><Point><coordinates>151.21079,-33.864158,0</coordinates></Point></Placemark><Placemark><Point><coordinates>151.210778,-33.864162,0</coordinates></Point></Placemark><Placemark><Point><coordinates>151.210766,-33.864166,0</coordinates></Point></Placemark><Placemark><Point><coordinates>151.210746,-33.864171,0</coordinates></Point></Placemark><Placemark><Point><coordinates>151.210702,-33.864188,0</coordinates></Point></Placemark><Placemark><Point><coordinates>151.21069,-33.864192,0</coordinates></Point></Placemark><Placemark><Point><coordinates>151.210679,-33.864195,0</coordinates></Point></Placemark><Placemark><Point><coordinates>151.210669,-33.864198,0</coordinates></Point></Placemark><Placemark><Point><coordinates>151.210658,-33.864206,0</coordinates></Point></Placemark><Placemark><Point><coordinates>151.21065,-33.864217,0</coordinates></Point></Placemark><Placemark><Point><coordinates>151.210639,-33.864222,0</coordinates></Point></Placemark><Placemark><Point><coordinates>151.210626,-33.864225,0</coordinates></Point></Placemark><Placemark><Point><coordinates>151.210616,-33.864228,0</coordinates></Point></Placemark><Placemark><Point><coordinates>151.210605,-33.864231,0</coordinates></Point></Placemark><Placemark><Point><coordinates>151.21061,-33.86424,0</coordinates></Point></Placemark><Placemark><Point><coordinates>151.210605,-33.864249,0</coordinates></Point></Placemark><Placemark><Point><coordinates>151.210589,-33.864243,0</coordinates></Point></Placemark><Placemark><Point><coordinates>151.210578,-33.864248,0</coordinates></Point></Placemark><Placemark><Point><coordinates>151.210566,-33.864248,0</coordinates></Point></Placemark><Placemark><Point><coordinates>151.210552,-33.864238,0</coordinates></Point></Placemark><Placemark><Point><coordinates>151.21053,-33.864212,0</coordinates></Point></Placemark><Placemark><Point><coordinates>151.210523,-33.864203,0</coordinates></Point></Placemark><Placemark><Point><coordinates>151.210516,-33.864194,0</coordinates></Point></Placemark><Placemark><Point><coordinates>151.210508,-33.864183,0</coordinates></Point></Placemark><Placemark><Point><coordinates>151.210502,-33.86417,0</coordinates></Point></Placemark><Placemark><Point><coordinates>151.210492,-33.864155,0</coordinates></Point></Placemark><Placemark><Point><coordinates>151.210477,-33.864148,0</coordinates></Point></Placemark><Placemark><Point><coordinates>151.210451,-33.864138,0</coordinates></Point></Placemark><Placemark><Point><coordinates>151.210436,-33.864124,0</coordinates></Point></Placemark><Placemark><Point><coordinates>151.210437,-33.864103,0</coordinates></Point></Placemark><Placemark><Point><coordinates>151.210436,-33.864087,0</coordinates></Point></Placemark><Placemark><Point><coordinates>151.210442,-33.864077,0</coordinates></Point></Placemark><Placemark><Point><coordinates>151.210433,-33.864085,0</coordinates></Point></Placemark><Placemark><Point><coordinates>151.210438,-33.864068,0</coordinates></Point></Placemark><Placemark><Point><coordinates>151.210433,-33.864048,0</coordinates></Point></Placemark><Placemark><Point><coordinates>151.210424,-33.864034,0</coordinates></Point></Placemark><Placemark><Point><coordinates>151.210418,-33.864023,0</coordinates></Point></Placemark><Placemark><Point><coordinates>151.210412,-33.864013,0</coordinates></Point></Placemark><Placemark><Point><coordinates>151.210406,-33.864005,0</coordinates></Point></Placemark><Placemark><Point><coordinates>151.210404,-33.863994,0</coordinates></Point></Placemark><Placemark><Point><coordinates>151.210406,-33.863984,0</coordinates></Point></Placemark><Placemark><Point><coordinates>151.210406,-33.863975,0</coordinates></Point></Placemark><Placemark><Point><coordinates>151.210406,-33.863966,0</coordinates></Point></Placemark><Placemark><Point><coordinates>151.210403,-33.863957,0</coordinates></Point></Placemark><Placemark><Point><coordinates>151.210401,-33.863947,0</coordinates></Point></Placemark><Placemark><Point><coordinates>151.210398,-33.863933,0</coordinates></Point></Placemark><Placemark><Point><coordinates>151.210397,-33.863924,0</coordinates></Point></Placemark><Placemark><Point><coordinates>151.210394,-33.863913,0</coordinates></Point></Placemark><Placemark><Point><coordinates>151.21039,-33.863903,0</coordinates></Point></Placemark><Placemark><Point><coordinates>151.210388,-33.863894,0</coordinates></Point></Placemark><Placemark><Point><coordinates>151.210387,-33.863884,0</coordinates></Point></Placemark><Placemark><Point><coordinates>151.210387,-33.863873,0</coordinates></Point></Placemark><Placemark><Point><coordinates>151.210387,-33.863862,0</coordinates></Point></Placemark><Placemark><Point><coordinates>151.210385,-33.863853,0</coordinates></Point></Placemark><Placemark><Point><coordinates>151.21038,-33.863842,0</coordinates></Point></Placemark><Placemark><Point><coordinates>151.210381,-33.863832,0</coordinates></Point></Placemark><Placemark><Point><coordinates>151.21038,-33.863822,0</coordinates></Point></Placemark><Placemark><Point><coordinates>151.210379,-33.863808,0</coordinates></Point></Placemark><Placemark><Point><coordinates>151.21038,-33.863798,0</coordinates></Point></Placemark><Placemark><Point><coordinates>151.210381,-33.863786,0</coordinates></Point></Placemark><Placemark><Point><coordinates>151.210382,-33.863776,0</coordinates></Point></Placemark><Placemark><Point><coordinates>151.21038,-33.863766,0</coordinates></Point></Placemark><Placemark><Point><coordinates>151.21038,-33.863757,0</coordinates></Point></Placemark><Placemark><Point><coordinates>151.21038,-33.863744,0</coordinates></Point></Placemark><Placemark><Point><coordinates>151.210378,-33.863733,0</coordinates></Point></Placemark><Placemark><Point><coordinates>151.210377,-33.863723,0</coordinates></Point></Placemark><Placemark><Point><coordinates>151.210376,-33.863714,0</coordinates></Point></Placemark><Placemark><Point><coordinates>151.210373,-33.863705,0</coordinates></Point></Placemark><Placemark><Point><coordinates>151.210373,-33.863693,0</coordinates></Point></Placemark><Placemark><Point><coordinates>151.210374,-33.863683,0</coordinates></Point></Placemark><Placemark><Point><coordinates>151.210374,-33.863672,0</coordinates></Point></Placemark><Placemark><Point><coordinates>151.210376,-33.863662,0</coordinates></Point></Placemark><Placemark><Point><coordinates>151.21038,-33.863654,0</coordinates></Point></Placemark><Placemark><Point><coordinates>151.210384,-33.863642,0</coordinates></Point></Placemark><Placemark><Point><coordinates>151.210387,-33.863616,0</coordinates></Point></Placemark><Placemark><Point><coordinates>151.210389,-33.863604,0</coordinates></Point></Placemark><Placemark><Point><coordinates>151.210385,-33.863592,0</coordinates></Point></Placemark><Placemark><Point><coordinates>151.210383,-33.863581,0</coordinates></Point></Placemark><Placemark><Point><coordinates>151.210383,-33.863572,0</coordinates></Point></Placemark><Placemark><Point><coordinates>151.210381,-33.863555,0</coordinates></Point></Placemark><Placemark><Point><coordinates>151.21038,-33.863545,0</coordinates></Point></Placemark><Placemark><Point><coordinates>151.210378,-33.863536,0</coordinates></Point></Placemark><Placemark><Point><coordinates>151.21038,-33.863527,0</coordinates></Point></Placemark><Placemark><Point><coordinates>151.21039,-33.863518,0</coordinates></Point></Placemark><Placemark><Point><coordinates>151.210402,-33.863516,0</coordinates></Point></Placemark><Placemark><Point><coordinates>151.210388,-33.863508,0</coordinates></Point></Placemark><Placemark><Point><coordinates>151.210354,-33.863496,0</coordinates></Point></Placemark><Placemark><Point><coordinates>151.210333,-33.86349,0</coordinates></Point></Placemark><Placemark><Point><coordinates>151.210321,-33.863491,0</coordinates></Point></Placemark><Placemark><Point><coordinates>151.210376,-33.863462,0</coordinates></Point></Placemark><Placemark><Point><coordinates>151.210389,-33.863455,0</coordinates></Point></Placemark><Placemark><Point><coordinates>151.210402,-33.863449,0</coordinates></Point></Placemark><Placemark><Point><coordinates>151.210425,-33.863453,0</coordinates></Point></Placemark><Placemark><Point><coordinates>151.210439,-33.863452,0</coordinates></Point></Placemark><Placemark><Point><coordinates>151.210456,-33.863456,0</coordinates></Point></Placemark><Placemark><Point><coordinates>151.210473,-33.863466,0</coordinates></Point></Placemark><Placemark><Point><coordinates>151.210494,-33.863474,0</coordinates></Point></Placemark><Placemark><Point><coordinates>151.210514,-33.863482,0</coordinates></Point></Placemark><Placemark><Point><coordinates>151.210524,-33.863484,0</coordinates></Point></Placemark><Placemark><Point><coordinates>151.210539,-33.863484,0</coordinates></Point></Placemark><Placemark><Point><coordinates>151.210556,-33.863484,0</coordinates></Point></Placemark><Placemark><Point><coordinates>151.210571,-33.863482,0</coordinates></Point></Placemark><Placemark><Point><coordinates>151.210582,-33.863481,0</coordinates></Point></Placemark><Placemark><Point><coordinates>151.210595,-33.86348,0</coordinates></Point></Placemark><Placemark><Point><coordinates>151.210609,-33.863479,0</coordinates></Point></Placemark><Placemark><Point><coordinates>151.210625,-33.86348,0</coordinates></Point></Placemark><Placemark><Point><coordinates>151.210637,-33.863479,0</coordinates></Point></Placemark><Placemark><Point><coordinates>151.21065,-33.863477,0</coordinates></Point></Placemark><Placemark><Point><coordinates>151.210661,-33.863475,0</coordinates></Point></Placemark><Placemark><Point><coordinates>151.210673,-33.863474,0</coordinates></Point></Placemark><Placemark><Point><coordinates>151.210686,-33.863476,0</coordinates></Point></Placemark><Placemark><Point><coordinates>151.210703,-33.863476,0</coordinates></Point></Placemark><Placemark><Point><coordinates>151.210718,-33.863475,0</coordinates></Point></Placemark><Placemark><Point><coordinates>151.210733,-33.863476,0</coordinates></Point></Placemark><Placemark><Point><coordinates>151.210745,-33.863476,0</coordinates></Point></Placemark><Placemark><Point><coordinates>151.210756,-33.863476,0</coordinates></Point></Placemark><Placemark><Point><coordinates>151.21077,-33.863474,0</coordinates></Point></Placemark><Placemark><Point><coordinates>151.210782,-33.863473,0</coordinates></Point></Placemark><Placemark><Point><coordinates>151.210798,-33.863472,0</coordinates></Point></Placemark><Placemark><Point><coordinates>151.210811,-33.863472,0</coordinates></Point></Placemark><Placemark><Point><coordinates>151.210831,-33.863469,0</coordinates></Point></Placemark><Placemark><Point><coordinates>151.210843,-33.863467,0</coordinates></Point></Placemark><Placemark><Point><coordinates>151.210859,-33.863464,0</coordinates></Point></Placemark><Placemark><Point><coordinates>151.210879,-33.863461,0</coordinates></Point></Placemark><Placemark><Point><coordinates>151.210896,-33.863459,0</coordinates></Point></Placemark><Placemark><Point><coordinates>151.210908,-33.86346,0</coordinates></Point></Placemark><Placemark><Point><coordinates>151.210923,-33.863418,0</coordinates></Point></Placemark><Placemark><Point><coordinates>151.210932,-33.863389,0</coordinates></Point></Placemark><Placemark><Point><coordinates>151.210938,-33.863375,0</coordinates></Point></Placemark><Placemark><Point><coordinates>151.210953,-33.863366,0</coordinates></Point></Placemark><Placemark><Point><coordinates>151.210964,-33.86336,0</coordinates></Point></Placemark><Placemark><Point><coordinates>151.210977,-33.863366,0</coordinates></Point></Placemark><Placemark><Point><coordinates>151.210985,-33.863374,0</coordinates></Point></Placemark><Placemark><Point><coordinates>151.210983,-33.863412,0</coordinates></Point></Placemark><Placemark><Point><coordinates>151.21098,-33.863426,0</coordinates></Point></Placemark><Placemark><Point><coordinates>151.210977,-33.86344,0</coordinates></Point></Placemark><Placemark><Point><coordinates>151.210976,-33.863451,0</coordinates></Point></Placemark><Placemark><Point><coordinates>151.210976,-33.863461,0</coordinates></Point></Placemark><Placemark><Point><coordinates>151.210971,-33.86347,0</coordinates></Point></Placemark><Placemark><Point><coordinates>151.210962,-33.863481,0</coordinates></Point></Placemark><Placemark><Point><coordinates>151.210968,-33.863491,0</coordinates></Point></Placemark><Placemark><Point><coordinates>151.210971,-33.863507,0</coordinates></Point></Placemark><Placemark><Point><coordinates>151.210974,-33.863521,0</coordinates></Point></Placemark><Placemark><Point><coordinates>151.210974,-33.863539,0</coordinates></Point></Placemark><Placemark><Point><coordinates>151.210974,-33.863554,0</coordinates></Point></Placemark><Placemark><Point><coordinates>151.210974,-33.863564,0</coordinates></Point></Placemark><Placemark><Point><coordinates>151.210979,-33.863579,0</coordinates></Point></Placemark><Placemark><Point><coordinates>151.210982,-33.863598,0</coordinates></Point></Placemark><Placemark><Point><coordinates>151.210987,-33.863608,0</coordinates></Point></Placemark><Placemark><Point><coordinates>151.210988,-33.863618,0</coordinates></Point></Placemark><Placemark><Point><coordinates>151.210992,-33.863628,0</coordinates></Point></Placemark><Placemark><Point><coordinates>151.210998,-33.863638,0</coordinates></Point></Placemark><Placemark><Point><coordinates>151.211001,-33.863648,0</coordinates></Point></Placemark><Placemark><Point><coordinates>151.211002,-33.863657,0</coordinates></Point></Placemark><Placemark><Point><coordinates>151.211004,-33.863667,0</coordinates></Point></Placemark><Placemark><Point><coordinates>151.211007,-33.863678,0</coordinates></Point></Placemark><Placemark><Point><coordinates>151.211008,-33.86369,0</coordinates></Point></Placemark><Placemark><Point><coordinates>151.21101,-33.8637,0</coordinates></Point></Placemark><Placemark><Point><coordinates>151.211012,-33.863714,0</coordinates></Point></Placemark><Placemark><Point><coordinates>151.211012,-33.863723,0</coordinates></Point></Placemark><Placemark><Point><coordinates>151.211012,-33.863733,0</coordinates></Point></Placemark></Document></kml>