<?xml version="1.0" encoding="UTF-8"?>
<kml xmlns="http://www.opengis.net/kml/2.2">
<Document>
        <Placemark>
            <Point>
                <coordinates>476.1364745,310.1121982,0</coordinates>
            </Point>
        </Placemark>
        <Placemark>
            <Point>
                <coordinates>420.2308438,309.4875543,0</coordinates>
            </Point>
        </Placemark>
        <Placemark>
            <Point>
                <coordinates>364.3252131,308.8629103,0</coordinates>
            </Point>
        </Placemark>
        <Placemark>
            <Point>
                <coordinates>308.4195824,308.2382664,0</coordinates>
            </Point>
        </Placemark>
        <Placemark>
            <Point>
                <coordinates>260.6726198,315.9074993,0</coordinates>
            </Point>
        </Placemark>
        <Placemark>
            <Point>
                <coordinates>260.3783654,371.8158452,0</coordinates>
            </Point>
        </Placemark>
        <Placemark>
            <Point>
                <coordinates>260.0841109,427.7241911,0</coordinates>
            </Point>
        </Placemark>
        <Placemark>
            <Point>
                <coordinates>259.7898565,483.6325369,0</coordinates>
            </Point>
        </Placemark>
        <Placemark>
            <Point>
                <coordinates>259.495602,539.5408828,0</coordinates>
            </Point>
        </Placemark>
        <Placemark>
            <Point>
                <coordinates>259.2013475,595.4492287,0</coordinates>
            </Point>
        </Placemark>
        <Placemark>
            <Point>
                <coordinates>314.851676,596.1008912,0</coordinates>
            </Point>
        </Placemark>
        <Placemark>
            <Point>
                <coordinates>370.7593835,596.4983393,0</coordinates>
            </Point>
        </Placemark>
        <Placemark>
            <Point>
                <coordinates>426.667091,596.8957875,0</coordinates>
            </Point>
        </Placemark>
        <Placemark>
            <Point>
                <coordinates>482.5747986,597.2932357,0</coordinates>
            </Point>
        </Placemark>
        <Placemark>
            <Point>
                <coordinates>538.4825061,597.6906838,0</coordinates>
            </Point>
        </Placemark>
        <Placemark>
            <Point>
                <coordinates>594.3902136,598.088132,0</coordinates>
            </Point>
        </Placemark>
        <Placemark>
            <Point>
                <coordinates>650.2979211,598.4855801,0</coordinates>
            </Point>
        </Placemark>
        <Placemark>
            <Point>
                <coordinates>706.2056287,598.8830283,0</coordinates>
            </Point>
        </Placemark>
        <Placemark>
            <Point>
                <coordinates>762.1133362,599.2804764,0</coordinates>
            </Point>
        </Placemark>
        <Placemark>
            <Point>
                <coordinates>818.0210437,599.6779246,0</coordinates>
            </Point>
        </Placemark>
        <Placemark>
            <Point>
                <coordinates>873.9287512,600.0753728,0</coordinates>
            </Point>
        </Placemark>
        <Placemark>
            <Point>
                <coordinates>897.3661634,569.3147445,0</coordinates>
            </Point>
        </Placemark>
        <Placemark>
            <Point>
                <coordinates>894.6640447,513.4709599,0</coordinates>
            </Point>
        </Placemark>
        <Placemark>
            <Point>
                <coordinates>891.9619261,457.6271753,0</coordinates>
            </Point>
        </Placemark>
        <Placemark>
            <Point>
                <coordinates>889.2598075,401.7833906,0</coordinates>
            </Point>
        </Placemark>
        <Placemark>
            <Point>
                <coordinates>886.5576889,345.939606,0</coordinates>
            </Point>
        </Placemark>
        <Placemark>
            <Point>
                <coordinates>856.9766341,317.6201141,0</coordinates>
            </Point>
        </Placemark>
        <Placemark>
            <Point>
                <coordinates>801.0844652,316.2434597,0</coordinates>
            </Point>
        </Placemark>
        <Placemark>
            <Point>
                <coordinates>745.1922963,314.8668053,0</coordinates>
            </Point>
        </Placemark>
        <Placemark>
            <Point>
                <coordinates>689.3001273,313.4901509,0</coordinates>
            </Point>
        </Placemark>
        <Placemark>
            <Point>
                <coordinates>633.4079584,312.1134965,0</coordinates>
            </Point>
        </Placemark></Document>
</kml>